NORAD_CAT_ID,OBJECT_NAME,OBJECT_TYPE,EPOCH,MEAN_MOTION,ECCENTRICITY,INCLINATION,RA_OF_ASC_NODE,ARG_OF_PERICENTER,MEAN_ANOMALY,BSTAR,MEAN_MOTION_DOT,MEAN_MOTION_DDOT,TLE_LINE0,TLE_LINE1,TLE_LINE2,SEMIMAJOR_AXIS,PERIOD,APOGEE,PERIGEE,DECAYED
53857.0,STARLINK-4809,PAYLOAD,2023-10-10 00:11:50,15.08838956,0.0001516,53.2164,291.724,85.2184,274.8981,0.0001615,2.283e-05,0.0,0 STARLINK-4809,1 53857U 22114AR  23283.00822334  .00002283  00000-0  16150-3 0  9999,2 53857  53.2164 291.7240 0001516  85.2184 274.8981 15.08838956 59339,6917.884,95.438,540.797,538.7,0.0
53857.0,STARLINK-4809,PAYLOAD,2023-10-10 08:08:46,15.08841795,0.0001681,53.2165,290.2358,86.3603,273.7581,9.7078e-05,1.257e-05,0.0,0 STARLINK-4809,1 53857U 22114AR  23283.33942228  .00001257  00000-0  97078-4 0  9999,2 53857  53.2165 290.2358 0001681  86.3603 273.7581 15.08841795 59929,6917.875,95.437,540.903,538.577,0.0
53857.0,STARLINK-4809,PAYLOAD,2023-10-10 17:41:05,15.08838154,0.0001669,53.2163,288.4513,89.6954,270.4229,3.7238e-05,3.05e-06,0.0,0 STARLINK-4809,1 53857U 22114AR  23283.73686453  .00000305  00000-0  37238-4 0  9993,2 53857  53.2163 288.4513 0001669  89.6954 270.4229 15.08838154 59984,6917.886,95.438,540.906,538.596,0.0
53857.0,STARLINK-4809,PAYLOAD,2023-10-11 00:02:37,15.0883524,0.0001727,53.2165,287.2629,90.7222,269.3968,1.4933e-05,-5e-07,0.0,0 STARLINK-4809,1 53857U 22114AR  23284.00182730 -.00000050  00000-0  14933-4 0  9998,2 53857  53.2165 287.2629 0001727  90.7222 269.3968 15.08835240 59482,6917.895,95.438,540.955,538.565,0.0
53857.0,STARLINK-4809,PAYLOAD,2023-10-11 07:59:33,15.08839989,0.0001534,53.2171,285.7756,94.9952,265.1215,1.6206e-05,-3e-07,0.0,0 STARLINK-4809,1 53857U 22114AR  23284.33302862 -.00000030  00000-0  16206-4 0  9997,2 53857  53.2171 285.7756 0001534  94.9952 265.1215 15.08839989 60075,6917.88,95.438,540.807,538.684,0.0
53857.0,STARLINK-4809,PAYLOAD,2023-10-12 04:39:34,15.08836758,0.0001749,53.2176,281.9094,84.5732,275.546,7.5695e-05,9.17e-06,0.0,0 STARLINK-4809,1 53857U 22114AR  23285.19415287  .00000917  00000-0  75695-4 0  9998,2 53857  53.2176 281.9094 0001749  84.5732 275.5460 15.08836758 59663,6917.89,95.438,540.965,538.545,0.0
53857.0,STARLINK-4809,PAYLOAD,2023-10-12 09:25:43,15.08845078,0.0001551,53.2166,281.0144,92.9927,267.1243,7.8794e-05,9.66e-06,0.0,0 STARLINK-4809,1 53857U 22114AR  23285.39286688  .00000966  00000-0  78794-4 0  9998,2 53857  53.2166 281.0144 0001551  92.9927 267.1243 15.08845078 60235,6917.865,95.437,540.803,538.657,0.0
53857.0,STARLINK-4809,PAYLOAD,2023-10-12 17:22:39,15.08842335,0.0001414,53.216,279.5281,101.7099,258.4052,6.5798e-05,7.59e-06,0.0,0 STARLINK-4809,1 53857U 22114AR  23285.72406878  .00000759  00000-0  65798-4 0  9990,2 53857  53.2160 279.5281 0001414 101.7099 258.4052 15.08842335 60289,6917.873,95.437,540.716,538.76,0.0
53857.0,STARLINK-4809,PAYLOAD,2023-10-13 09:16:30,15.08850451,0.0001564,53.2174,276.5536,100.5826,259.5343,0.00016818,2.39e-05,0.0,0 STARLINK-4809,1 53857U 22114AR  23286.38646319  .00002390  00000-0  16818-3 0  9990,2 53857  53.2174 276.5536 0001564 100.5826 259.5343 15.08850451 59848,6917.848,95.437,540.795,538.631,0.0
53857.0,STARLINK-4809,PAYLOAD,2023-10-14 04:21:08,15.08845424,0.0001473,53.217,272.9835,101.2037,258.9121,0.00025027,3.698e-05,0.0,0 STARLINK-4809,1 53857U 22114AR  23287.18134735  .00003698  00000-0  25027-3 0  9997,2 53857  53.2170 272.9835 0001473 101.2037 258.9121 15.08845424 59961,6917.864,95.437,540.748,538.71,0.0
53857.0,STARLINK-4809,PAYLOAD,2023-10-14 09:07:17,15.08853747,0.0001667,53.2163,272.0913,100.6168,259.5012,0.00018364,2.637e-05,0.0,0 STARLINK-4809,1 53857U 22114AR  23287.38006169  .00002637  00000-0  18364-3 0  9996,2 53857  53.2163 272.0913 0001667 100.6168 259.5012 15.08853747 60532,6917.838,95.437,540.857,538.55,0.0
53857.0,STARLINK-4809,PAYLOAD,2023-10-15 04:11:56,15.08827862,0.0001421,53.2178,268.5239,91.7228,268.3927,-7.2642e-05,-1.443e-05,0.0,0 STARLINK-4809,1 53857U 22114AR  23288.17496395 -.00001443  00000-0 -72642-4 0  9994,2 53857  53.2178 268.5239 0001421  91.7228 268.3927 15.08827862 60110,6917.917,95.438,540.766,538.799,0.0
53857.0,STARLINK-4809,PAYLOAD,2023-10-15 08:58:06,15.08832562,0.000136,53.2168,267.6334,87.362,272.7528,-7.1159e-05,-1.42e-05,0.0,0 STARLINK-4809,1 53857U 22114AR  23288.37368185 -.00001420  00000-0 -71159-4 0  9998,2 53857  53.2168 267.6334 0001360  87.3620 272.7528 15.08832562 60685,6917.903,95.438,540.709,538.827,0.0
53857.0,STARLINK-4809,PAYLOAD,2023-10-15 15:19:38,15.088406,0.0001344,53.2167,266.4455,91.5112,268.6034,-2.9107e-05,-7.51e-06,0.0,0 STARLINK-4809,1 53857U 22114AR  23288.63863544 -.00000751  00000-0 -29107-4 0  9998,2 53857  53.2167 266.4455 0001344  91.5112 268.6034 15.08840600 60183,6917.879,95.438,540.673,538.814,0.0
53857.0,STARLINK-4809,PAYLOAD,2023-10-15 21:41:10,15.08840485,0.000133,53.2173,265.255,90.7467,269.3678,8.3375e-05,1.039e-05,0.0,0 STARLINK-4809,1 53857U 22114AR  23288.90359479  .00001039  00000-0  83375-4 0  9990,2 53857  53.2173 265.2550 0001330  90.7467 269.3678 15.08840485 60769,6917.879,95.438,540.664,538.824,0.0
53857.0,STARLINK-4809,PAYLOAD,2023-10-16 05:38:05,15.08855899,0.0001281,53.2159,263.7688,96.5828,263.531,0.00043435,6.634e-05,0.0,0 STARLINK-4809,1 53857U 22114AR  23289.23478810  .00006634  00000-0  43435-3 0  9996,2 53857  53.2159 263.7688 0001281  96.5828 263.5310 15.08855899 60278,6917.832,95.437,540.583,538.811,0.0
53857.0,STARLINK-4809,PAYLOAD,2023-10-16 08:48:51,15.08860629,0.0001289,53.2159,263.1736,94.7524,265.3616,0.00073925,0.00011503,0.0,0 STARLINK-4809,1 53857U 22114AR  23289.36726831  .00011503  00000-0  73925-3 0  9997,2 53857  53.2159 263.1736 0001289  94.7524 265.3616 15.08860629 60835,6917.817,95.436,540.574,538.791,0.0
53857.0,STARLINK-4809,PAYLOAD,2023-10-16 21:31:57,15.08854079,0.000195,53.2159,260.795,87.8632,272.2583,0.00041467,6.32e-05,0.0,0 STARLINK-4809,1 53857U 22114AR  23289.89719136  .00006320  00000-0  41467-3 0  9992,2 53857  53.2159 260.7950 0001950  87.8632 272.2583 15.08854079 60915,6917.837,95.437,541.051,538.353,0.0
53857.0,STARLINK-4809,PAYLOAD,2023-10-18 02:08:54,15.08847298,0.0001332,53.2156,255.4426,87.932,272.1824,0.0013247,0.00020862,0.0,0 STARLINK-4809,1 53857U 22114AR  23291.08951571  .00020862  00000-0  13247-2 0  9998,2 53857  53.2156 255.4426 0001332  87.9320 272.1824 15.08847298 61092,6917.858,95.437,540.645,538.802,0.0
53857.0,STARLINK-4809,PAYLOAD,2023-10-18 05:19:40,15.08848927,0.0001451,53.2158,254.8473,91.1958,268.9201,0.0010085,0.00015803,0.0,0 STARLINK-4809,1 53857U 22114AR  23291.22199463  .00015803  00000-0  10085-2 0  9994,2 53857  53.2158 254.8473 0001451  91.1958 268.9201 15.08848927 60579,6917.853,95.437,540.722,538.714,0.0
53857.0,STARLINK-4809,PAYLOAD,2023-10-18 14:51:59,15.088421,0.0001708,53.2163,253.0647,80.6021,279.5164,0.00051621,7.937e-05,0.0,0 STARLINK-4809,1 53857U 22114AR  23291.61943711  .00007937  00000-0  51621-3 0  9991,2 53857  53.2163 253.0647 0001708  80.6021 279.5164 15.08842100 60638,6917.874,95.437,540.921,538.557,0.0
53857.0,STARLINK-4809,PAYLOAD,2023-10-19 06:45:50,15.08857655,0.0001447,53.2155,250.0875,91.7764,268.3394,0.0007835,0.00012209,0.0,0 STARLINK-4809,1 53857U 22114AR  23292.28183209  .00012209  00000-0  78350-3 0  9999,2 53857  53.2155 250.0875 0001447  91.7764 268.3394 15.08857655 61279,6917.826,95.436,540.692,538.69,0.0
53857.0,STARLINK-4809,PAYLOAD,2023-10-19 21:04:18,15.08847061,0.0001388,53.2165,247.4154,79.1431,280.9717,0.00032381,4.87e-05,0.0,0 STARLINK-4809,1 53857U 22114AR  23292.87799485  .00004870  00000-0  32381-3 0  9992,2 53857  53.2165 247.4154 0001388  79.1431 280.9717 15.08847061 60824,6917.859,95.437,540.684,538.764,0.0
53857.0,STARLINK-4809,PAYLOAD,2023-10-20 06:36:37,15.08856847,0.000187,53.216,245.6284,107.5241,252.5955,0.00050263,7.724e-05,0.0,0 STARLINK-4809,1 53857U 22114AR  23293.27542940  .00007724  00000-0  50263-3 0  9999,2 53857  53.2160 245.6284 0001870 107.5241 252.5955 15.08856847 60881,6917.829,95.436,540.988,538.4,0.0
53857.0,STARLINK-4809,PAYLOAD,2023-10-20 20:55:06,15.08832963,0.0001341,53.2172,242.9537,95.9973,264.1172,-4.9096e-05,-1.069e-05,0.0,0 STARLINK-4809,1 53857U 22114AR  23293.87159763 -.00001069  00000-0 -49096-4 0  9993,2 53857  53.2172 242.9537 0001341  95.9973 264.1172 15.08832963 60973,6917.902,95.438,540.695,538.839,0.0
53857.0,STARLINK-4809,PAYLOAD,2023-10-21 06:27:24,15.08840255,0.0001575,53.2166,241.1669,108.2842,251.8321,0.00066821,0.00010363,0.0,0 STARLINK-4809,1 53857U 22114AR  23294.26903873  .00010363  00000-0  66821-3 0  9995,2 53857  53.2166 241.1669 0001575 108.2842 251.8321 15.08840255 61574,6917.88,95.438,540.834,538.655,0.0
53857.0,STARLINK-4809,PAYLOAD,2023-10-22 03:07:24,15.08871882,0.0001374,53.2154,237.3022,84.254,275.8608,0.0011173,0.00017554,0.0,0 STARLINK-4809,1 53857U 22114AR  23295.13014996  .00017554  00000-0  11173-2 0  9999,2 53857  53.2154 237.3022 0001374  84.2540 275.8608 15.08871882 61165,6917.783,95.436,540.598,538.697,0.0
53857.0,STARLINK-4809,PAYLOAD,2023-10-22 12:39:43,15.08852277,0.0001538,53.217,235.5183,90.8876,269.2292,0.00012783,1.748e-05,0.0,0 STARLINK-4809,1 53857U 22114AR  23295.52759072  .00001748  00000-0  12783-3 0  9990,2 53857  53.2170 235.5183 0001538  90.8876 269.2292 15.08852277 61767,6917.843,95.437,540.772,538.644,0.0
53857.0,STARLINK-4809,PAYLOAD,2023-10-23 02:58:12,15.08835189,0.0001385,53.2155,232.8426,102.3309,257.7838,0.00024568,3.624e-05,0.0,0 STARLINK-4809,1 53857U 22114AR  23296.12375664  .00003624  00000-0  24568-3 0  9997,2 53857  53.2155 232.8426 0001385 102.3309 257.7838 15.08835189 61312,6917.895,95.438,540.718,538.802,0.0
53857.0,STARLINK-4809,PAYLOAD,2023-10-23 12:30:31,15.08830062,0.0001398,53.2155,231.059,107.4179,252.6966,0.00082649,0.00012887,0.0,0 STARLINK-4809,1 53857U 22114AR  23296.52120297  .00012887  00000-0  82649-3 0  9996,2 53857  53.2155 231.0590 0001398 107.4179 252.6966 15.08830062 61917,6917.911,95.438,540.743,538.809,0.0
